{"type": "FeatureCollection", "features": [ {"type": "Feature", "properties": {"norad_id": 34001, "name": "COSMOS 2251 DEB", "group": "cosmos-2251-debris", "lat": 69.14311490377486, "lon": -37.37398612155407, "alt_km": 759.0986919759325, "timestamp": "2025-12-16T21:38:57.568545+00:00", "meta": {"OBJECT_NAME": "COSMOS 2251 DEB", "OBJECT_ID": "1993-036GL", "EPOCH": "2025-12-16T07:02:45.218688", "MEAN_MOTION": 14.37103103, "ECCENTRICITY": 0.00201388, "INCLINATION": 74.0389, "RA_OF_ASC_NODE": 275.0527, "ARG_OF_PERICENTER": 355.2501, "MEAN_ANOMALY": 174.2242, "EPHEMERIS_TYPE": 0, "CLASSIFICATION_TYPE": "U", "NORAD_CAT_ID": 34001, "ELEMENT_SET_NO": 999, "REV_AT_EPOCH": 88197, "BSTAR": 0.00019251586, "MEAN_MOTION_DOT": 5.47e-06, "MEAN_MOTION_DDOT": 0}, "tle": {"line1": "1 34001U 93036GL  25350.29357892  .00000547  00000+0  19252-3 0  9996", "line2": "2 34001  74.0389 275.0527 0020138 355.2501 174.2242 14.37103103881972"}}, "geometry": {"type": "Point", "coordinates": [-37.37398612155407, 69.14311490377486]}}, {"type": "Feature", "properties": {"norad_id": 34003, "name": "COSMOS 2251 DEB", "group": "cosmos-2251-debris", "lat": -63.83474485138016, "lon": 133.66276928551125, "alt_km": 1108.4060514962375, "timestamp": "2025-12-16T21:38:57.568555+00:00", "meta": {"OBJECT_NAME": "COSMOS 2251 DEB", "OBJECT_ID": "1993-036GN", "EPOCH": "2025-12-14T21:36:56.499552", "MEAN_MOTION": 13.8416537, "ECCENTRICITY": 0.0274563, "INCLINATION": 74.0769, "RA_OF_ASC_NODE": 281.5067, "ARG_OF_PERICENTER": 33.033, "MEAN_ANOMALY": 328.7613, "EPHEMERIS_TYPE": 0, "CLASSIFICATION_TYPE": "U", "NORAD_CAT_ID": 34003, "ELEMENT_SET_NO": 999, "REV_AT_EPOCH": 84455, "BSTAR": 0.0016495834, "MEAN_MOTION_DOT": 2.44e-05, "MEAN_MOTION_DDOT": 0}, "tle": {"line1": "1 34003U 93036GN  25348.90065393  .00002440  00000+0  16496-2 0  9995", "line2": "2 34003  74.0769 281.5067 0274563  33.0330 328.7613 13.84165370844557"}}, "geometry": {"type": "Point", "coordinates": [133.66276928551125, -63.83474485138016]}}, {"type": "Feature", "properties": {"norad_id": 34004, "name": "COSMOS 2251 DEB", "group": "cosmos-2251-debris", "lat": 37.422801417826925, "lon": 112.65103452030804, "alt_km": 749.3953125700318, "timestamp": "2025-12-16T21:38:57.568565+00:00", "meta": {"OBJECT_NAME": "COSMOS 2251 DEB", "OBJECT_ID": "1993-036GP", "EPOCH": "2025-12-16T06:05:18.633696", "MEAN_MOTION": 14.49044206, "ECCENTRICITY": 0.00334183, "INCLINATION": 74.0348, "RA_OF_ASC_NODE": 306.5198, "ARG_OF_PERICENTER": 318.2586, "MEAN_ANOMALY": 41.6024, "EPHEMERIS_TYPE": 0, "CLASSIFICATION_TYPE": "U", "NORAD_CAT_ID": 34004, "ELEMENT_SET_NO": 999, "REV_AT_EPOCH": 88081, "BSTAR": 0.00092835072, "MEAN_MOTION_DOT": 3.522e-05, "MEAN_MOTION_DDOT": 0}, "tle": {"line1": "1 34004U 93036GP  25350.25368789  .00003522  00000+0  92835-3 0  9996", "line2": "2 34004  74.0348 306.5198 0033418 318.2586  41.6024 14.49044206880819"}}, "geometry": {"type": "Point", "coordinates": [112.65103452030804, 37.422801417826925]}}, {"type": "Feature", "properties": {"norad_id": 34005, "name": "COSMOS 2251 DEB", "group": "cosmos-2251-debris", "lat": -69.15027959966085, "lon": 157.26333061713498, "alt_km": 752.892516150665, "timestamp": "2025-12-16T21:38:57.568575+00:00", "meta": {"OBJECT_NAME": "COSMOS 2251 DEB", "OBJECT_ID": "1993-036GQ", "EPOCH": "2025-12-16T02:33:50.390208", "MEAN_MOTION": 14.40306767, "ECCENTRICITY": 0.00209611, "INCLINATION": 74.044, "RA_OF_ASC_NODE": 207.4265, "ARG_OF_PERICENTER": 325.0524, "MEAN_ANOMALY": 157.0747, "EPHEMERIS_TYPE": 0, "CLASSIFICATION_TYPE": "U", "NORAD_CAT_ID": 34005, "ELEMENT_SET_NO": 999, "REV_AT_EPOCH": 88427, "BSTAR": 0.00010194271, "MEAN_MOTION_DOT": 2.97e-06, "MEAN_MOTION_DDOT": 0}, "tle": {"line1": "1 34005U 93036GQ  25350.10683322  .00000297  00000+0  10194-3 0  9998", "line2": "2 34005  74.0440 207.4265 0020961 325.0524 157.0747 14.40306767884276"}}, "geometry": {"type": "Point", "coordinates": [157.26333061713498, -69.15027959966085]}}, {"type": "Feature", "properties": {"norad_id": 34006, "name": "COSMOS 2251 DEB", "group": "cosmos-2251-debris", "lat": -67.27967371933752, "lon": 91.83112877620017, "alt_km": 596.0354870476413, "timestamp": "2025-12-16T21:38:57.568586+00:00", "meta": {"OBJECT_NAME": "COSMOS 2251 DEB", "OBJECT_ID": "1993-036GR", "EPOCH": "2025-12-16T04:52:27.283584", "MEAN_MOTION": 14.94999161, "ECCENTRICITY": 0.00113904, "INCLINATION": 74.0528, "RA_OF_ASC_NODE": 136.3084, "ARG_OF_PERICENTER": 78.1198, "MEAN_ANOMALY": 48.1148, "EPHEMERIS_TYPE": 0, "CLASSIFICATION_TYPE": "U", "NORAD_CAT_ID": 34006, "ELEMENT_SET_NO": 999, "REV_AT_EPOCH": 88720, "BSTAR": 0.0023278286, "MEAN_MOTION_DOT": 0.00025547, "MEAN_MOTION_DDOT": 0}, "tle": {"line1": "1 34006U 93036GR  25350.20309356  .00025547  00000+0  23278-2 0  9993", "line2": "2 34006  74.0528 136.3084 0011390  78.1198  48.1148 14.94999161887208"}}, "geometry": {"type": "Point", "coordinates": [91.83112877620017, -67.27967371933752]}}, {"type": "Feature", "properties": {"norad_id": 34007, "name": "COSMOS 2251 DEB", "group": "cosmos-2251-debris", "lat": 44.19962936340865, "lon": 142.70295319386437, "alt_km": 644.3954084900397, "timestamp": "2025-12-16T21:38:57.568596+00:00", "meta": {"OBJECT_NAME": "COSMOS 2251 DEB", "OBJECT_ID": "1993-036GS", "EPOCH": "2025-12-16T07:55:56.507232", "MEAN_MOTION": 14.64812122, "ECCENTRICITY": 0.00442524, "INCLINATION": 74.019, "RA_OF_ASC_NODE": 339.9841, "ARG_OF_PERICENTER": 113.7712, "MEAN_ANOMALY": 246.8106, "EPHEMERIS_TYPE": 0, "CLASSIFICATION_TYPE": "U", "NORAD_CAT_ID": 34007, "ELEMENT_SET_NO": 999, "REV_AT_EPOCH": 89132, "BSTAR": 0.0004839154, "MEAN_MOTION_DOT": 2.589e-05, "MEAN_MOTION_DDOT": 0}, "tle": {"line1": "1 34007U 93036GS  25350.33051513  .00002589  00000+0  48392-3 0  9993", "line2": "2 34007  74.0190 339.9841 0044252 113.7712 246.8106 14.64812122891324"}}, "geometry": {"type": "Point", "coordinates": [142.70295319386437, 44.19962936340865]}}, {"type": "Feature", "properties": {"norad_id": 34008, "name": "COSMOS 2251 DEB", "group": "cosmos-2251-debris", "lat": 72.84156154100974, "lon": 30.91429221468481, "alt_km": 784.2088170351626, "timestamp": "2025-12-16T21:38:57.568606+00:00", "meta": {"OBJECT_NAME": "COSMOS 2251 DEB", "OBJECT_ID": "1993-036GT", "EPOCH": "2025-12-16T08:37:53.379840", "MEAN_MOTION": 14.33148953, "ECCENTRICITY": 0.00244439, "INCLINATION": 74.0344, "RA_OF_ASC_NODE": 323.9023, "ARG_OF_PERICENTER": 318.5051, "MEAN_ANOMALY": 207.5846, "EPHEMERIS_TYPE": 0, "CLASSIFICATION_TYPE": "U", "NORAD_CAT_ID": 34008, "ELEMENT_SET_NO": 999, "REV_AT_EPOCH": 88016, "BSTAR": 0.0001240887, "MEAN_MOTION_DOT": 3.15e-06, "MEAN_MOTION_DDOT": 0}, "tle": {"line1": "1 34008U 93036GT  25350.35964560  .00000315  00000+0  12409-3 0  9996", "line2": "2 34008  74.0344 323.9023 0024443 318.5051 207.5846 14.33148953880167"}}, "geometry": {"type": "Point", "coordinates": [30.91429221468481, 72.84156154100974]}}, {"type": "Feature", "properties": {"norad_id": 34009, "name": "COSMOS 2251 DEB", "group": "cosmos-2251-debris", "lat": 55.592878158053885, "lon": 124.62698986867181, "alt_km": 772.9855197087163, "timestamp": "2025-12-16T21:38:57.568616+00:00", "meta": {"OBJECT_NAME": "COSMOS 2251 DEB", "OBJECT_ID": "1993-036GU", "EPOCH": "2025-12-16T08:14:08.496960", "MEAN_MOTION": 14.33225136, "ECCENTRICITY": 0.0026644, "INCLINATION": 74.0371, "RA_OF_ASC_NODE": 330.351, "ARG_OF_PERICENTER": 38.8512, "MEAN_ANOMALY": 79.1228, "EPHEMERIS_TYPE": 0, "CLASSIFICATION_TYPE": "U", "NORAD_CAT_ID": 34009, "ELEMENT_SET_NO": 999, "REV_AT_EPOCH": 87997, "BSTAR": 0.00014125322, "MEAN_MOTION_DOT": 3.64e-06, "MEAN_MOTION_DDOT": 0}, "tle": {"line1": "1 34009U 93036GU  25350.34315390  .00000364  00000+0  14125-3 0  9998", "line2": "2 34009  74.0371 330.3510 0026644  38.8512  79.1228 14.33225136879973"}}, "geometry": {"type": "Point", "coordinates": [124.62698986867181, 55.592878158053885]}}, {"type": "Feature", "properties": {"norad_id": 34010, "name": "COSMOS 2251 DEB", "group": "cosmos-2251-debris", "lat": -17.236275122524816, "lon": 99.6850093550711, "alt_km": 514.573688708716, "timestamp": "2025-12-16T21:38:57.568627+00:00", "meta": {"OBJECT_NAME": "COSMOS 2251 DEB", "OBJECT_ID": "1993-036GV", "EPOCH": "2025-12-16T04:58:42.847968", "MEAN_MOTION": 15.19291966, "ECCENTRICITY": 0.00046339, "INCLINATION": 73.9988, "RA_OF_ASC_NODE": 276.0343, "ARG_OF_PERICENTER": 65.4776, "MEAN_ANOMALY": 294.6903, "EPHEMERIS_TYPE": 0, "CLASSIFICATION_TYPE": "U", "NORAD_CAT_ID": 34010, "ELEMENT_SET_NO": 999, "REV_AT_EPOCH": 89338, "BSTAR": 0.0030640416, "MEAN_MOTION_DOT": 0.00065248, "MEAN_MOTION_DDOT": 0}, "tle": {"line1": "1 34010U 93036GV  25350.20744037  .00065248  00000+0  30640-2 0  9990", "line2": "2 34010  73.9988 276.0343 0004633  65.4776 294.6903 15.19291966893383"}}, "geometry": {"type": "Point", "coordinates": [99.6850093550711, -17.236275122524816]}}, {"type": "Feature", "properties": {"norad_id": 34011, "name": "COSMOS 2251 DEB", "group": "cosmos-2251-debris", "lat": -67.37148204026097, "lon": -174.1254568187051, "alt_km": 781.7854709472776, "timestamp": "2025-12-16T21:38:57.568637+00:00", "meta": {"OBJECT_NAME": "COSMOS 2251 DEB", "OBJECT_ID": "1993-036GW", "EPOCH": "2025-12-16T00:29:35.841408", "MEAN_MOTION": 14.41786553, "ECCENTRICITY": 0.00357852, "INCLINATION": 74.0142, "RA_OF_ASC_NODE": 324.0613, "ARG_OF_PERICENTER": 46.5764, "MEAN_ANOMALY": 313.836, "EPHEMERIS_TYPE": 0, "CLASSIFICATION_TYPE": "U", "NORAD_CAT_ID": 34011, "ELEMENT_SET_NO": 999, "REV_AT_EPOCH": 87963, "BSTAR": 0.00056802857, "MEAN_MOTION_DOT": 1.843e-05, "MEAN_MOTION_DDOT": 0}, "tle": {"line1": "1 34011U 93036GW  25350.02055372  .00001843  00000+0  56803-3 0  9999", "line2": "2 34011  74.0142 324.0613 0035785  46.5764 313.8360 14.41786553879639"}}, "geometry": {"type": "Point", "coordinates": [-174.1254568187051, -67.37148204026097]}}]}